{
  "norad_id": 64320,
  "name": "STARLINK-11594 [DTC]",
  "history": [
    {
      "epoch": "2026-03-28T21:55:08.886720Z",
      "apogee_km": 357.59623616200497,
      "perigee_km": 355.41286537124597,
      "latitude_deg": -3.266807694530275e-05,
      "longitude_deg": 118.59781433721366,
      "height_km": 356.36654532500285,
      "semi_major_axis_km": 6734.641550766625,
      "eccentricity": 0.0001621,
      "inclination_deg": 43.0,
      "raan_deg": 273.7118,
      "arg_perigee_deg": 265.3037,
      "mean_anomaly_deg": 94.7645,
      "mean_motion_rev_day": 15.7083668
    }
  ]
}